GLOBALSTAR M063         
1 26081U 00008A   24127.33467090 -.00000076  00000+0  97735-4 0  9991
2 26081  51.9933 103.0574 0004550 257.0905 251.9384 11.86153945109297
GLOBALSTAR M062         
1 26082U 00008B   24127.55534604 -.00000043  00000+0  39380-3 0  9997
2 26082  51.9834 211.5341 0006620 323.4868 140.5220 12.43434945446035
GLOBALSTAR M060         
1 26083U 00008C   24127.15997692 -.00000128  00000+0 -37090-3 0  9995
2 26083  51.9995 115.1188 0003470  16.9277  63.8567 12.17632341102783
GLOBALSTAR M064         
1 26084U 00008D   24127.51967175 -.00000047  00000+0  51635-3 0  9999
2 26084  52.0015 206.1972 0001000   0.5689 359.5144 11.88518672118740
GLOBALSTAR M065         
1 31571U 07020A   24127.47037002 -.00000059  00000+0  25315-3 0  9998
2 31571  51.9916  24.1403 0010607 125.0011  46.3880 12.61968980782059
GLOBALSTAR M069         
1 31573U 07020C   24127.51763479 -.00000041  00000+0  35205-3 0  9999
2 31573  51.9964 339.8784 0001020  83.7650 282.9453 12.62271844783197
GLOBALSTAR M072         
1 31574U 07020D   24127.62855656 -.00000086  00000+0  99966-4 0  9995
2 31574  52.0087  75.4362 0000507  21.6346 149.7128 12.62271297781473
GLOBALSTAR M071         
1 31576U 07020F   24127.34263637 -.00000055  00000+0  26991-3 0  9991
2 31576  52.0082 345.5434 0000815  47.9627 123.2477 12.62264855444355
